[{"OBJECT_NAME":"STARLINK-32156","OBJECT_ID":"2024-132A","EPOCH":"2026-03-09T23:08:15.189216","MEAN_MOTION":15.30185403,"ECCENTRICITY":0.00016075,"INCLINATION":53.1617,"RA_OF_ASC_NODE":51.0684,"ARG_OF_PERICENTER":84.3488,"MEAN_ANOMALY":275.7696,"EPHEMERIS_TYPE":0,"CLASSIFICATION_TYPE":"U","NORAD_CAT_ID":60278,"ELEMENT_SET_NO":999,"REV_AT_EPOCH":9282,"BSTAR":1.2145713e-5,"MEAN_MOTION_DOT":0,"MEAN_MOTION_DDOT":0},{"OBJECT_NAME":"SCS-01 H","OBJECT_ID":"2025-100H","EPOCH":"2026-03-09T23:19:05.376864","MEAN_MOTION":15.31767757,"ECCENTRICITY":0.00071581,"INCLINATION":97.3749,"RA_OF_ASC_NODE":145.8085,"ARG_OF_PERICENTER":277.8492,"MEAN_ANOMALY":82.1937,"EPHEMERIS_TYPE":0,"CLASSIFICATION_TYPE":"U","NORAD_CAT_ID":63989,"ELEMENT_SET_NO":999,"REV_AT_EPOCH":4566,"BSTAR":0.0011436254,"MEAN_MOTION_DOT":0.00035149,"MEAN_MOTION_DDOT":0}]
